#aV2020  2 22  0  0  0.00000000     288 DD+AD WGS84 FIT  NGA
## 2093 518400.00000000   300.00000000 58901 0.0000000000000
+   32     1  2  3  4  5  6  7  8  9 10 11 12 13 14 15 16 17
+         18 19 20 21 22 23 24 25 26 27 28 29 30 31 32  0  0
+          0  0  0  0  0  0  0  0  0  0  0  0  0  0  0  0  0
+          0  0  0  0  0  0  0  0  0  0  0  0  0  0  0  0  0
+          0  0  0  0  0  0  0  0  0  0  0  0  0  0  0  0  0
++         2  2  2  2  2  2  2  2  2  2  2  2  2  2  2  2  2
++         2  2  2  2  2  2  2  2  2  2  2  2  2  2  2  0  0
++         0  0  0  0  0  0  0  0  0  0  0  0  0  0  0  0  0
++         0  0  0  0  0  0  0  0  0  0  0  0  0  0  0  0  0
++         0  0  0  0  0  0  0  0  0  0  0  0  0  0  0  0  0
%c cc cc ccc ccc cccc cccc cccc cccc ccccc ccccc ccccc ccccc
%c cc cc ccc ccc cccc cccc cccc cccc ccccc ccccc ccccc ccccc
%f  0.0000000  0.000000000  0.00000000000  0.000000000000000
%f  0.0000000  0.000000000  0.00000000000  0.000000000000000
%i    0    0    0    0      0      0      0      0         0
%i    0    0    0    0      0      0      0      0         0
/*      NGA, ST. LOUIS,MO.                                  
/*   EPHEMERIS COMPUTED FROM 2 DAYS OF DATA                 
/*   EPOCHA v5 SMOOTHER                                     
/*   G1762 IERS2010 SATAF SATAPC                            
*  2020  2 22 17 35  0.00000000
P  1 -14133.160579 -13771.887757 -18140.639441   -303.364745                    
V  1  22436.559654   1323.972488 -18377.574598     -0.122395                    
P  2 -10178.428994  14199.236066  20626.241455   -409.502149                    
V  2 -24761.280371  -1745.220307 -11457.713846     -0.068648                    
P  3 -13281.612185 -22697.938671   4012.790390   -100.704666                    
V  3    219.956097  -5747.497938 -31250.015723     -0.090795                    
P  4  -6738.811105 -15108.843642  20781.645836    -52.527055                    
V  4  16733.138117 -20408.723772  -9438.986908     -0.053402                    
P  5   -924.597443  21929.934078  14681.229121     -8.004271                    
V  5 -10515.528760 -15984.220988  23195.748662     -0.005860                    
P  6 -21280.445095   7468.768362  14117.696961   -214.778005                    
V  6 -17532.081241  -3420.359119 -24674.463024     -0.091540                    
P  7 -25790.271360  -6067.827256   4458.893468   -220.285700                    
V  7   5486.064552  -1960.846504  30611.412589     -0.084586                    
P  8   2468.502148 -21608.119943 -15043.876288    -24.680938                    
V  8  12620.526793 -14650.385265  23311.693150     -0.013573                    
P  9 -14985.352449  -4970.162313  21306.865798   -161.391171                    
V  9  15101.765250 -22636.672493   5309.531407     -0.084057                    
P 10  15473.147682  -1856.944307 -21454.717884   -254.036840                    
V 10  10992.153694  25086.290935   5506.697391     -0.129177                    
P 11  -2521.663448 -16554.942295 -21139.227303   -353.777472                    
V 11  24353.605479  -8834.977808   3810.723413      0.108564                    
P 12   9960.453408  24686.324743   1144.384499    148.396745                    
V 12  -1353.005437   2336.044440 -32009.976230     -0.041914                    
P 13 -11110.166015  21995.211837  -9925.452769    -10.947511                    
V 13 -10186.256537   7519.932505  28496.793253      0.027742                    
P 14  18554.727216 -18541.707586  -3126.826845    -30.802526                    
V 14   -560.646534   5288.821670 -31543.290975      0.024343                    
P 15    866.117257  21660.352252 -15397.060747   -249.772734                    
V 15 -12019.541029  15311.027646  21671.105523      0.026282                    
P 16   2862.537711 -21608.700422  14643.169127   -127.335735                    
V 16   8188.373592  17375.192053  24145.074852     -0.041744                    
P 17 -20050.353438  11734.123680 -12401.748173    220.431088                    
V 17   8850.262665 -13947.805604 -26649.941497      0.063039                    
P 18  -5286.972350 -15398.548850 -21506.441691      3.894131                    
V 18  26131.887470    627.194562  -6954.870615      0.018487                    
P 19 -20002.463757  16496.644182  -6063.723787   -195.164161                    
V 19   3336.954306  -6794.227473 -30993.549564      0.051469                    
P 20  19405.879141   8544.968836 -16205.266699    527.873212                    
V 20   8832.306532  18549.690973  20255.960102     -0.000008                    
P 21  25993.238213   3619.554826   3830.183861    -37.419750                    
V 21  -4046.754140   3080.234639  31222.458311      0.053243                    
P 22  -9862.444449 -24319.026168  -4257.189456   -784.949042                    
V 22   5939.524794   3203.987464 -30357.294714     -0.005007                    
P 23  -8835.515695 -14062.021811  21017.748200   -134.550927                    
V 23  15476.577244 -20926.202152  -8005.449027      0.026205                    
P 24  12506.608232  14377.781921 -18834.905308     -9.420072                    
V 24 -23519.641870    539.999274 -14999.390787     -0.005372                    
P 25  16516.078193  17353.526960  11527.087658    -12.152219                    
V 25   4191.788343  14435.832434 -26927.414204      0.015225                    
P 26   8894.197680 -14725.447157  20149.146403    153.638929                    
V 26  12464.311439  22572.535559  11197.568981      0.076947                    
P 27  11498.545581 -23008.165424  -5995.094077   -218.643882                    
V 27   6340.726714  -4697.235763  31140.586974     -0.109619                    
P 28 -14447.452892   2536.720932 -21547.302001    737.545100                    
V 28  -9090.214223 -27268.998122   2943.736409     -0.024195                    
P 29  13229.656469   6820.678369  21964.436300    -39.477824                    
V 29 -17582.676842  21660.678451   3841.126113     -0.093768                    
P 30 -25712.825862   1568.640646  -6859.229079   -159.298690                    
V 30  -8218.444076  -4324.774441  29490.704697     -0.089143                    
P 31  19793.321613  -8636.291968  15724.976028    -24.916508                    
V 31  19483.713344   4227.762423 -21693.665191     -0.024526                    
P 32  19635.861189 -12843.618877 -12241.842520    219.001662                    
V 32  -6987.688328  14302.312938 -26206.732650      0.096748                    
EOF
